#dP2021  3 19  0  0  0.00000000      96 __u+U ITR00 FIT  IAC
## 2149 432000.00000000   900.00000000 59292 0.0000000000000
+  116   C06C07C08C09C10C11C12C13C14C16C19C20C21C22C23C24C25
+        C26C27C28C29C30C32C33C34C35C36C37C38C39C40C41C42C43
+        C44C45C46E01E02E03E04E05E07E08E09E11E12E13E14E15E18
+        E19E21E24E25E26E27E30E31E33G01G02G03G04G05G06G07G08
+        G09G10G11G12G13G14G15G16G17G18G19G20G21G22G23G24G25
+        G26G27G28G29G30G31G32J01J02J03R01R02R03R04R05R07R08
+        R09R11R12R13R14R15R16R17R18R19R20R21R22R24  0  0  0
++        12  8  6 10  5  7  8  7  8 10  8  7  8  8  8  6  8
++         6  6  6  7  7  7  6  7 10  6  8  9 10  8  7  7  7
++         9  9  6  6  7  6  6  6  5  6  7  5  5  6  6  6  6
++         7  6  7  7  7  6  7  7  5  5  5  5  4  8  5  7  6
++         6  6  6  6  6  5  7  6  5  6  6  5  5  4  5  0  6
++         5  6  5  5  6  6  4  7  8  8  6  6  5  7  7  7  6
++         7  6  5  8  6  7  7  6  5  7  8  6  7  6  0  0  0
%c M  cc GPS ccc cccc cccc cccc cccc ccccc ccccc ccccc ccccc
%c cc cc ccc ccc cccc cccc cccc cccc ccccc ccccc ccccc ccccc
%f  0.0000000  0.000000000  0.00000000000  0.000000000000000
%f  0.0000000  0.000000000  0.00000000000  0.000000000000000
%i    0    0    0    0      0      0      0      0         0
%i    0    0    0    0      0      0      0      0         0
/* INFORMATION & ANALYSIS CENTER (IAC)      ULTRA-RAPID DATA
/* S/V CLOCKS ARE ALIGNED TO GNSS TIME                      
/* G:C1WC2W R:C1PC2P E:C1XC5X C:C2IC6I J:C1CC2S             
/* PCV:IGS14_2134 OL/AL:FES2004  NONE     YN ORB:CoN CLK:CoN
*  2021 03 19 19  0  0.00000000
PC06  -8958.949429  35153.603868  22336.830870    192.869903
PC07 -17931.943129  21843.958866 -31144.714181    -33.680434
PC08 -24779.957281  32228.107335  10551.722019   -899.012781
PC09    509.226856  41481.387633   9011.416428    657.012779
PC10  -1614.357623  26508.807844 -32513.054520    -69.247071
PC11 -14160.266466 -12932.546217 -20222.298326   -859.372713
PC12  -6281.393088 -26438.346940  -6341.462647    877.195763
PC13 -12704.913104  33138.300542  22678.150058    186.845072
PC14 -25253.990073 -11933.677420   -522.135408    251.352332
PC16  -5252.192208  37369.149597  19130.072475   -742.072034
PC19  25980.576450   5229.796158  -8683.692569    767.545780
PC20  21241.382261  16041.674880   8350.338554   -933.119672
PC21  -3574.499320 -17789.313480 -21185.284591   -893.690347
PC22  15751.255410  -8951.784687 -21209.537778   -923.767373
PC23 -21687.716808  17360.798408  -2624.979092   -878.742042
PC24 -11337.308745 -11796.440404  22591.547365   -787.486465
PC25 -23675.849079   5145.262607  13820.636968   -945.940874
PC26   5931.625963 -20376.903064  18128.008771    933.129695
PC27     75.203588  27769.295717  -2898.069383    501.320240
PC28 -11240.762643  17928.169154 -18188.604851    -96.497230
PC29  16042.781784   1773.451041  22759.372184    367.196838
PC30  11909.437753  21235.872410  13657.669669    453.639082
PC32   3646.729193  17778.051487  21215.480678   -916.414597
PC33 -26046.603078  -5112.024494   8653.329007   -945.856372
PC34 -12200.346985 -20679.143069 -14205.190254   -715.319068
PC35  10830.358181 -18002.215541  18344.406582   -367.118508
PC36  23699.859669  -4324.754192 -14068.567728   -739.934998
PC37  -7207.631518  20377.111550 -17628.836177   -879.140006
PC38 -21735.903745  33700.983518  12875.581006    136.847198
PC39  -2356.219924  37757.258925  18777.883968     29.529699
PC40  -4587.787784  22010.443236 -35660.783198    142.578335
PC41 -16002.602898   8870.105243  21121.313971   -933.566377
PC42 -20852.348234 -16268.180566  -8879.884331   -938.990707
PC43 -16164.673096  -2360.502205 -22626.569254   -646.854654
PC44   -868.085962 -27702.894959   3057.348613     94.148394
PC45  21633.110132 -17439.563158   2704.592770    391.061774
PC46  12179.974576  10976.664668 -22584.335546    355.499396
PE01 -12002.941230  16353.280136 -21556.912748  -1068.970668
PE02  11912.254923 -16367.398735  21596.400306    206.158038
PE03   1624.030195 -21327.078710 -20465.509499   -410.690367
PE04  14697.439245  25071.382132   5629.375246   -732.317383
PE05  17258.166761  -4993.157065 -23519.664930   -295.730510
PE07 -22666.652796 -14073.193894  12837.300664   -514.827604
PE08 -15078.082272 -24911.251723  -5345.926318   6030.708440
PE09  22674.333322  13865.904040 -13009.846754   5729.382520
PE11  15349.136067   5239.427315  24758.869050   6188.945409
PE12   3137.809629  23639.471523  17557.409477   5302.199171
PE13 -15127.254600  -5592.397514 -24811.562526    413.782691
PE14   6114.462331  25635.961453  -5343.849949  -1367.427515
PE15  -3193.945020 -23567.931276 -17603.794730    823.830152
PE18 -17703.476194 -23096.354726  -9383.722506  -1495.399760
PE19  -3567.065550  19898.029275  21630.336960    230.902642
PE21 -27149.961660   9058.985270  -7541.498278   -654.524879
PE24  26747.272877   4417.724302 -11933.910485   -801.449300
PE25  27244.846763  -8947.137348   7356.845569   -528.856577
PE26 -18216.685705  16199.833156 -16784.503287   2023.209791
PE27 -27074.848067  -3795.156283  11328.265123      6.987846
PE30 -10093.385159 -14713.660320  23601.012059   3093.875208
PE31  11099.080086  14324.505254 -23404.461923   -479.329044
PE33 -10589.226471  27649.723638     67.763837   -466.690592
PG01  13981.582013 -22331.623832  -1328.486061    737.421481
PG02 -17961.106238   6860.277733 -17683.966204   -587.688162
PG03  11705.391807 -13062.874054 -19990.492841   -112.629456
PG04   5308.545354 -18711.162931 -18058.917629   -187.136306
PG05 -25229.397153   4473.151135   7204.817409    -36.675817
PG06 -12852.006619  -7190.570468 -22042.051921      1.728955
PG07   3011.300155 -22329.319631  13998.766190     95.190128
PG08  10571.335333 -11573.155687  21396.468837    -14.349551
PG09  -4604.707425 -24187.460953  -9985.642246   -332.392136
PG10  18243.902692  11788.401121  15577.885091    -84.385891
PG11   9539.893196 -22971.884248   9371.520154      5.679218
PG12 -15852.690748  10666.553136 -18636.911741    -16.208472
PG13 -15276.667909   1202.866317  21572.408968    109.746574
PG14 -16578.975612 -13128.713492  16069.217728     99.738605
PG15  -9694.386717  13185.991535  20505.666306   -162.028006
PG16  26295.818048    596.504228   4941.443769   -296.510558
PG17 -13652.687288 -21866.785391  -5961.399207    412.378055
PG18   -858.757244  20942.508824  16273.147518    350.830725
PG19 -16112.960566 -15940.939584 -14208.237330    -24.213137
PG20   3588.178824  15406.925506  21299.120962    524.039930
PG21  17035.758310 -18646.122516   8136.348615    104.418293
PG22  19900.716185 -10768.506621 -13564.440064   -656.966931
PG23   6959.285929  14795.227672  20918.363900    117.071678
PG24      0.000000      0.000000      0.000000 999999.999999
PG25   -741.136914  15305.360215 -21956.441791    102.022352
PG26  25777.771029   4426.471804  -5440.700212     60.346656
PG27  16499.743040   1797.062830  20656.830811    -97.040191
PG28 -18065.823767 -13042.752678  14865.823064    599.724881
PG29   3223.742279  24548.131163  -9603.432715   -314.786137
PG30  -7776.055204 -15076.153779  20438.554157   -400.776774
PG31  15248.293047   4542.896011 -21407.046297   -106.562716
PG32  16015.785626  19907.534515  -7466.333622     21.432326
PJ01 -26457.111465  21534.525377  29742.590693   -356.508659
PJ02 -35517.809148  17946.879119  -9374.835116      3.672524
PJ03 -20368.312400  27995.878980 -19448.320348     -1.979724
PR01  21217.042756  14138.554742   -476.195706     76.627022
PR02  17097.569377   1319.221092 -18863.893641    471.399859
PR03   2807.075198 -11236.100887 -22676.340351     32.679614
PR04 -12984.894655 -17135.668105 -13692.503700     78.603532
PR05 -21370.899232 -13585.818798   2980.434957     68.441486
PR07  -2148.177840  11674.356189  22622.891956    -42.556365
PR08  12945.099033  17222.111058  13729.466012    -58.025156
PR09 -23453.796408   9861.223734   2291.475623    -16.319026
PR11   1730.052158  11138.312143 -22876.273419      2.117968
PR12  18137.302856    983.795413 -17900.594592    213.892862
PR13  23441.939360  -9641.534610  -2899.703259    -52.227044
PR14  14928.589020 -14689.290031  14559.285425     62.189021
PR15  -2051.801826 -11100.166903  22888.313188    104.833797
PR16 -18708.324704   -142.431813  17242.824508    -12.729191
PR17   6343.972271 -23046.923724   8956.711997    409.357748
PR18  -1119.550650 -24156.408487  -8006.072128     70.342399
PR19  -7411.147281 -13412.055084 -20388.795561   -136.353735
PR20 -10746.065269   8090.135029 -21674.899337    -45.592956
PR21  -5928.727029  23529.611582  -7834.788583   -195.583827
PR22   1476.912086  23852.358303   9053.162005   -103.440093
PR24  11034.233743  -8890.016849  21230.290849     35.617260
EOF
